SL-14 R/B               
1 21423U 91042B   26036.68267448  .00000549  00000+0  66501-4 0  9999
2 21423  82.4901 250.2036 0016805 351.4925   8.6002 14.81799310848330
ERS-1                   
1 21574U 91050A   26036.65251671  .00000529  00000+0  18401-3 0  9996
2 21574  98.7896  54.0815 0030985 298.2671  61.5390 14.39423060811120
ARIANE 40 R/B           
1 21610U 91050F   26036.64093968  .00000472  00000+0  15397-3 0  9997
2 21610  98.2079  90.0696 0003640 152.7941 207.3441 14.42869728814374
INTERCOSMOS 25          
1 21819U 91086A   26036.21050880  .00000954  00000+0  18452-3 0  9996
2 21819  82.6088 329.6349 1486612 186.9062 170.9281 12.11910767492751
SL-8 R/B                
1 21876U 92008B   26036.71603615  .00000081  00000+0  67790-4 0  9990
2 21876  82.9270 291.5637 0033679 222.5926 147.6222 13.75969515705022
SL-8 R/B                
1 21938U 92020B   26036.38933360  .00000133  00000+0  12184-3 0  9993
2 21938  82.9324 177.7364 0029506  30.3498 358.0231 13.75544445696697
USA 81                  
1 21949U 92023A   26036.66383387  .00000312  00000+0  10814-3 0  9994
2 21949  85.0120 149.9068 0002559 106.4623 253.6852 14.32355852 90203
COSMOS 2219             
1 22219U 92076A   26036.61793091 -.00000151  00000+0 -54219-4 0  9996
2 22219  71.0587  85.1175 0020469 251.3623 108.5277 14.14077153713842
SL-16 R/B               
1 22220U 92076B   26036.02629806  .00000268  00000+0  15727-3 0  9992
2 22220  70.9982 257.1797 0011761 154.0697 356.0770 14.16854195717200
COSMOS 2221             
1 22236U 92080A   26036.73529426  .00003188  00000+0  28112-3 0  9995
2 22236  82.5061 309.6830 0013095 304.8898  55.1092 14.96071718776013
SL-16 R/B               
1 22285U 92093B   26036.58453789 -.00000180  00000+0 -67738-4 0  9993
2 22285  71.0203  71.6659 0005073 327.1779  32.9028 14.15441589708617
COSMOS 2228             
1 22286U 92094A   26036.63885128  .00003425  00000+0  29405-3 0  9998
2 22286  82.5157 268.0016 0019302  52.4896 307.8077 14.97043773771262
