CCSDS_OMM_VERS = 2.0
CREATION_DATE  = 
ORIGINATOR     = 

OBJECT_NAME    = SL-14 R/B
OBJECT_ID      = 1991-042B
CENTER_NAME    = EARTH
REF_FRAME      = TEME
TIME_SYSTEM    = UTC
MEAN_ELEMENT_THEORY = SGP/SGP4

EPOCH          = 2026-02-05T16:23:03.075072
MEAN_MOTION    = 14.81799310
ECCENTRICITY   = .0016805
INCLINATION    = 82.4901
RA_OF_ASC_NODE = 250.2036
ARG_OF_PERICENTER = 351.4925
MEAN_ANOMALY   = 8.6002

EPHEMERIS_TYPE = 0
CLASSIFICATION_TYPE = U
NORAD_CAT_ID   = 21423
ELEMENT_SET_NO = 999
REV_AT_EPOCH   = 84833
BSTAR          = .66501019E-4
MEAN_MOTION_DOT = .549E-5
MEAN_MOTION_DDOT = 0

CCSDS_OMM_VERS = 2.0
CREATION_DATE  = 
ORIGINATOR     = 

OBJECT_NAME    = ERS-1
OBJECT_ID      = 1991-050A
CENTER_NAME    = EARTH
REF_FRAME      = TEME
TIME_SYSTEM    = UTC
MEAN_ELEMENT_THEORY = SGP/SGP4

EPOCH          = 2026-02-05T15:39:37.443744
MEAN_MOTION    = 14.39423060
ECCENTRICITY   = .00309858
INCLINATION    = 98.7896
RA_OF_ASC_NODE = 54.0815
ARG_OF_PERICENTER = 298.2671
MEAN_ANOMALY   = 61.5390

EPHEMERIS_TYPE = 0
CLASSIFICATION_TYPE = U
NORAD_CAT_ID   = 21574
ELEMENT_SET_NO = 999
REV_AT_EPOCH   = 81112
BSTAR          = .18401001E-3
MEAN_MOTION_DOT = .529E-5
MEAN_MOTION_DDOT = 0

CCSDS_OMM_VERS = 2.0
CREATION_DATE  = 
ORIGINATOR     = 

OBJECT_NAME    = ARIANE 40 R/B
OBJECT_ID      = 1991-050F
CENTER_NAME    = EARTH
REF_FRAME      = TEME
TIME_SYSTEM    = UTC
MEAN_ELEMENT_THEORY = SGP/SGP4

EPOCH          = 2026-02-05T15:22:57.188352
MEAN_MOTION    = 14.42869728
ECCENTRICITY   = .00036402
INCLINATION    = 98.2079
RA_OF_ASC_NODE = 90.0696
ARG_OF_PERICENTER = 152.7941
MEAN_ANOMALY   = 207.3441

EPHEMERIS_TYPE = 0
CLASSIFICATION_TYPE = U
NORAD_CAT_ID   = 21610
ELEMENT_SET_NO = 999
REV_AT_EPOCH   = 81437
BSTAR          = .15396766E-3
MEAN_MOTION_DOT = .472E-5
MEAN_MOTION_DDOT = 0

CCSDS_OMM_VERS = 2.0
CREATION_DATE  = 
ORIGINATOR     = 

OBJECT_NAME    = INTERCOSMOS 25
OBJECT_ID      = 1991-086A
CENTER_NAME    = EARTH
REF_FRAME      = TEME
TIME_SYSTEM    = UTC
MEAN_ELEMENT_THEORY = SGP/SGP4

EPOCH          = 2026-02-05T05:03:07.960320
MEAN_MOTION    = 12.11910767
ECCENTRICITY   = .1486612
INCLINATION    = 82.6088
RA_OF_ASC_NODE = 329.6349
ARG_OF_PERICENTER = 186.9062
MEAN_ANOMALY   = 170.9281

EPHEMERIS_TYPE = 0
CLASSIFICATION_TYPE = U
NORAD_CAT_ID   = 21819
ELEMENT_SET_NO = 999
REV_AT_EPOCH   = 49275
BSTAR          = .18452E-3
MEAN_MOTION_DOT = .954E-5
MEAN_MOTION_DDOT = 0

CCSDS_OMM_VERS = 2.0
CREATION_DATE  = 
ORIGINATOR     = 

OBJECT_NAME    = SL-8 R/B
OBJECT_ID      = 1992-008B
CENTER_NAME    = EARTH
REF_FRAME      = TEME
TIME_SYSTEM    = UTC
MEAN_ELEMENT_THEORY = SGP/SGP4

EPOCH          = 2026-02-05T17:11:05.523360
MEAN_MOTION    = 13.75969515
ECCENTRICITY   = .00336799
INCLINATION    = 82.9270
RA_OF_ASC_NODE = 291.5637
ARG_OF_PERICENTER = 222.5926
MEAN_ANOMALY   = 147.6222

EPHEMERIS_TYPE = 0
CLASSIFICATION_TYPE = U
NORAD_CAT_ID   = 21876
ELEMENT_SET_NO = 999
REV_AT_EPOCH   = 70502
BSTAR          = .67789617E-4
MEAN_MOTION_DOT = .81E-6
MEAN_MOTION_DDOT = 0

CCSDS_OMM_VERS = 2.0
CREATION_DATE  = 
ORIGINATOR     = 

OBJECT_NAME    = SL-8 R/B
OBJECT_ID      = 1992-020B
CENTER_NAME    = EARTH
REF_FRAME      = TEME
TIME_SYSTEM    = UTC
MEAN_ELEMENT_THEORY = SGP/SGP4

EPOCH          = 2026-02-05T09:20:38.423040
MEAN_MOTION    = 13.75544445
ECCENTRICITY   = .00295062
INCLINATION    = 82.9324
RA_OF_ASC_NODE = 177.7364
ARG_OF_PERICENTER = 30.3498
MEAN_ANOMALY   = 358.0231

EPHEMERIS_TYPE = 0
CLASSIFICATION_TYPE = U
NORAD_CAT_ID   = 21938
ELEMENT_SET_NO = 999
REV_AT_EPOCH   = 69669
BSTAR          = .12184405E-3
MEAN_MOTION_DOT = .133E-5
MEAN_MOTION_DDOT = 0

CCSDS_OMM_VERS = 2.0
CREATION_DATE  = 
ORIGINATOR     = 

OBJECT_NAME    = USA 81
OBJECT_ID      = 1992-023A
CENTER_NAME    = EARTH
REF_FRAME      = TEME
TIME_SYSTEM    = UTC
MEAN_ELEMENT_THEORY = SGP/SGP4

EPOCH          = 2026-02-05T15:55:55.246368
MEAN_MOTION    = 14.32355852
ECCENTRICITY   = .00025599
INCLINATION    = 85.0120
RA_OF_ASC_NODE = 149.9068
ARG_OF_PERICENTER = 106.4623
MEAN_ANOMALY   = 253.6852

EPHEMERIS_TYPE = 0
CLASSIFICATION_TYPE = U
NORAD_CAT_ID   = 21949
ELEMENT_SET_NO = 999
REV_AT_EPOCH   = 9020
BSTAR          = .10813927E-3
MEAN_MOTION_DOT = .312E-5
MEAN_MOTION_DDOT = 0

CCSDS_OMM_VERS = 2.0
CREATION_DATE  = 
ORIGINATOR     = 

OBJECT_NAME    = COSMOS 2219
OBJECT_ID      = 1992-076A
CENTER_NAME    = EARTH
REF_FRAME      = TEME
TIME_SYSTEM    = UTC
MEAN_ELEMENT_THEORY = SGP/SGP4

EPOCH          = 2026-02-05T14:49:49.230624
MEAN_MOTION    = 14.14077153
ECCENTRICITY   = .00204696
INCLINATION    = 71.0587
RA_OF_ASC_NODE = 85.1175
ARG_OF_PERICENTER = 251.3623
MEAN_ANOMALY   = 108.5277

EPHEMERIS_TYPE = 0
CLASSIFICATION_TYPE = U
NORAD_CAT_ID   = 22219
ELEMENT_SET_NO = 999
REV_AT_EPOCH   = 71384
BSTAR          = -.54218685E-4
MEAN_MOTION_DOT = -.151E-5
MEAN_MOTION_DDOT = 0

CCSDS_OMM_VERS = 2.0
CREATION_DATE  = 
ORIGINATOR     = 

OBJECT_NAME    = SL-16 R/B
OBJECT_ID      = 1992-076B
CENTER_NAME    = EARTH
REF_FRAME      = TEME
TIME_SYSTEM    = UTC
MEAN_ELEMENT_THEORY = SGP/SGP4

EPOCH          = 2026-02-05T00:37:52.152384
MEAN_MOTION    = 14.16854195
ECCENTRICITY   = .00117613
INCLINATION    = 70.9982
RA_OF_ASC_NODE = 257.1797
ARG_OF_PERICENTER = 154.0697
MEAN_ANOMALY   = 356.0770

EPHEMERIS_TYPE = 0
CLASSIFICATION_TYPE = U
NORAD_CAT_ID   = 22220
ELEMENT_SET_NO = 999
REV_AT_EPOCH   = 71720
BSTAR          = .15726796E-3
MEAN_MOTION_DOT = .268E-5
MEAN_MOTION_DDOT = 0

CCSDS_OMM_VERS = 2.0
CREATION_DATE  = 
ORIGINATOR     = 

OBJECT_NAME    = COSMOS 2221
OBJECT_ID      = 1992-080A
CENTER_NAME    = EARTH
REF_FRAME      = TEME
TIME_SYSTEM    = UTC
MEAN_ELEMENT_THEORY = SGP/SGP4

EPOCH          = 2026-02-05T17:38:49.424064
MEAN_MOTION    = 14.96071718
ECCENTRICITY   = .00130953
INCLINATION    = 82.5061
RA_OF_ASC_NODE = 309.6830
ARG_OF_PERICENTER = 304.8898
MEAN_ANOMALY   = 55.1092

EPHEMERIS_TYPE = 0
CLASSIFICATION_TYPE = U
NORAD_CAT_ID   = 22236
ELEMENT_SET_NO = 999
REV_AT_EPOCH   = 77601
BSTAR          = .2811237E-3
MEAN_MOTION_DOT = .3188E-4
MEAN_MOTION_DDOT = 0

CCSDS_OMM_VERS = 2.0
CREATION_DATE  = 
ORIGINATOR     = 

OBJECT_NAME    = SL-16 R/B
OBJECT_ID      = 1992-093B
CENTER_NAME    = EARTH
REF_FRAME      = TEME
TIME_SYSTEM    = UTC
MEAN_ELEMENT_THEORY = SGP/SGP4

EPOCH          = 2026-02-05T14:01:44.073696
MEAN_MOTION    = 14.15441589
ECCENTRICITY   = .00050738
INCLINATION    = 71.0203
RA_OF_ASC_NODE = 71.6659
ARG_OF_PERICENTER = 327.1779
MEAN_ANOMALY   = 32.9028

EPHEMERIS_TYPE = 0
CLASSIFICATION_TYPE = U
NORAD_CAT_ID   = 22285
ELEMENT_SET_NO = 999
REV_AT_EPOCH   = 70861
BSTAR          = -.67738461E-4
MEAN_MOTION_DOT = -.18E-5
MEAN_MOTION_DDOT = 0

CCSDS_OMM_VERS = 2.0
CREATION_DATE  = 
ORIGINATOR     = 

OBJECT_NAME    = COSMOS 2228
OBJECT_ID      = 1992-094A
CENTER_NAME    = EARTH
REF_FRAME      = TEME
TIME_SYSTEM    = UTC
MEAN_ELEMENT_THEORY = SGP/SGP4

EPOCH          = 2026-02-05T15:19:56.750592
MEAN_MOTION    = 14.97043773
ECCENTRICITY   = .00193029
INCLINATION    = 82.5157
RA_OF_ASC_NODE = 268.0016
ARG_OF_PERICENTER = 52.4896
MEAN_ANOMALY   = 307.8077

EPHEMERIS_TYPE = 0
CLASSIFICATION_TYPE = U
NORAD_CAT_ID   = 22286
ELEMENT_SET_NO = 999
REV_AT_EPOCH   = 77126
BSTAR          = .29404727E-3
MEAN_MOTION_DOT = .3425E-4
MEAN_MOTION_DDOT = 0

